CTC1_L_00332001-01
1 10000U 22010OH  26075.70033565  .00000000  00000+0  00000-0 0  9994
2 10000  90.0000   0.0000 0000000   0.0000   0.0000 14.51731151    12
CTC1_L_00332001-02
1 10001U 24980JH  26075.70033565  .00000000  00000+0  00000-0 0  9993
2 10001  90.0000   0.0000 0000000   0.0000  90.0000 14.51731151    12
CTC1_L_00332001-03
1 10002U 23566KJ  26075.70033565  .00000000  00000+0  00000-0 0  9993
2 10002  90.0000   0.0000 0000000   0.0000 180.0000 14.51731151    13
CTC1_L_00332001-04
1 10003U 25726BZ  26075.70033565  .00000000  00000+0  00000-0 0  9994
2 10003  90.0000   0.0000 0000000   0.0000 270.0000 14.51731151    14
CTC1_L_00332002-01
1 10004U 25644IH  26075.70033565  .00000000  00000+0  00000-0 0  9994
2 10004  90.0000  12.0000 0000000   0.0000  12.0000 14.51731151    12
CTC1_L_00332002-02
1 10005U 23419FP  26075.70033565  .00000000  00000+0  00000-0 0  9993
2 10005  90.0000  12.0000 0000000   0.0000 102.0000 14.51731151    13
CTC1_L_00332002-03
1 10006U 25409OJ  26075.70033565  .00000000  00000+0  00000-0 0  9995
2 10006  90.0000  12.0000 0000000   0.0000 192.0000 14.51731151    13
CTC1_L_00332002-04
1 10007U 22198DR  26075.70033565  .00000000  00000+0  00000-0 0  9998
2 10007  90.0000  12.0000 0000000   0.0000 282.0000 14.51731151    14
CTC1_L_00332003-01
1 10008U 25551TF  26075.70033565  .00000000  00000+0  00000-0 0  9995
2 10008  90.0000  24.0000 0000000   0.0000  24.0000 14.51731151    12
CTC1_L_00332003-02
1 10009U 24836GV  26075.70033565  .00000000  00000+0  00000-0 0  9991
2 10009  90.0000  24.0000 0000000   0.0000 114.0000 14.51731151    13
CTC1_L_00332003-03
1 10010U 24545HD  26075.70033565  .00000000  00000+0  00000-0 0  9990
2 10010  90.0000  24.0000 0000000   0.0000 204.0000 14.51731151    15
CTC1_L_00332003-04
1 10011U 22533JT  26075.70033565  .00000000  00000+0  00000-0 0  9996
2 10011  90.0000  24.0000 0000000   0.0000 294.0000 14.51731151    15
CTC1_L_00332004-01
1 10012U 24222L   26075.70033565  .00000000  00000+0  00000-0 0  9994
2 10012  90.0000  36.0000 0000000   0.0000  36.0000 14.51731151    13
CTC1_L_00332004-02
1 10013U 23169DK  26075.70033565  .00000000  00000+0  00000-0 0  9994
2 10013  90.0000  36.0000 0000000   0.0000 126.0000 14.51731151    14
CTC1_L_00332004-03
1 10014U 23494WA  26075.70033565  .00000000  00000+0  00000-0 0  9996
2 10014  90.0000  36.0000 0000000   0.0000 216.0000 14.51731151    15
CTC1_L_00332004-04
1 10015U 22296VT  26075.70033565  .00000000  00000+0  00000-0 0  9996
2 10015  90.0000  36.0000 0000000   0.0000 306.0000 14.51731151    16
CTC1_L_00332005-01
1 10016U 25211OT  26075.70033565  .00000000  00000+0  00000-0 0  9997
2 10016  90.0000  48.0000 0000000   0.0000  48.0000 14.51731151    13
CTC1_L_00332005-02
1 10017U 22438KX  26075.70033565  .00000000  00000+0  00000-0 0  9996
2 10017  90.0000  48.0000 0000000   0.0000 138.0000 14.51731151    14
CTC1_L_00332005-03
1 10018U 24910KY  26075.70033565  .00000000  00000+0  00000-0 0  9994
2 10018  90.0000  48.0000 0000000   0.0000 228.0000 14.51731151    15
CTC1_L_00332005-04
1 10019U 23253EM  26075.70033565  .00000000  00000+0  00000-0 0  9994
2 10019  90.0000  48.0000 0000000   0.0000 318.0000 14.51731151    16
CTC1_L_00332006-01
1 10020U 25799KF  26075.70033565  .00000000  00000+0  00000-0 0  9993
2 10020  90.0000  60.0000 0000000   0.0000  60.0000 14.51731151    16
CTC1_L_00332006-02
1 10021U 23673OK  26075.70033565  .00000000  00000+0  00000-0 0  9993
2 10021  90.0000  60.0000 0000000   0.0000 150.0000 14.51731151    17
CTC1_L_00332006-03
1 10022U 23031TA  26075.70033565  .00000000  00000+0  00000-0 0  9992
2 10022  90.0000  60.0000 0000000   0.0000 240.0000 14.51731151    18
CTC1_L_00332006-04
1 10023U 24439A   26075.70033565  .00000000  00000+0  00000-0 0  9996
2 10023  90.0000  60.0000 0000000   0.0000 330.0000 14.51731151    19
CTC1_L_00332007-01
1 10024U 25606SP  26075.70033565  .00000000  00000+0  00000-0 0  9994
2 10024  90.0000  72.0000 0000000   0.0000  72.0000 14.51731151    16
CTC1_L_00332007-02
1 10025U 24020HP  26075.70033565  .00000000  00000+0  00000-0 0  9994
2 10025  90.0000  72.0000 0000000   0.0000 162.0000 14.51731151    17
CTC1_L_00332007-03
1 10026U 24586VK  26075.70033565  .00000000  00000+0  00000-0 0  9992
2 10026  90.0000  72.0000 0000000   0.0000 252.0000 14.51731151    18
CTC1_L_00332007-04
1 10027U 22629PZ  26075.70033565  .00000000  00000+0  00000-0 0  9999
2 10027  90.0000  72.0000 0000000   0.0000 342.0000 14.51731151    19
CTC1_L_00332008-01
1 10028U 22833SU  26075.70033565  .00000000  00000+0  00000-0 0  9997
2 10028  90.0000  84.0000 0000000   0.0000  84.0000 14.51731151    16
CTC1_L_00332008-02
1 10029U 24972W   26075.70033565  .00000000  00000+0  00000-0 0  9994
2 10029  90.0000  84.0000 0000000   0.0000 174.0000 14.51731151    17
CTC1_L_00332008-03
1 10030U 22702CZ  26075.70033565  .00000000  00000+0  00000-0 0  9995
2 10030  90.0000  84.0000 0000000   0.0000 264.0000 14.51731151    19
CTC1_L_00332008-04
1 10031U 26848L   26075.70033565  .00000000  00000+0  00000-0 0  9991
2 10031  90.0000  84.0000 0000000   0.0000 354.0000 14.51731151    10
CTC1_L_00332009-01
1 10032U 26735TD  26075.70033565  .00000000  00000+0  00000-0 0  9997
2 10032  90.0000  96.0000 0000000   0.0000  96.0000 14.51731151    17
CTC1_L_00332009-02
1 10033U 22052CJ  26075.70033565  .00000000  00000+0  00000-0 0  9996
2 10033  90.0000  96.0000 0000000   0.0000 186.0000 14.51731151    18
CTC1_L_00332009-03
1 10034U 23449DZ  26075.70033565  .00000000  00000+0  00000-0 0  9998
2 10034  90.0000  96.0000 0000000   0.0000 276.0000 14.51731151    19
CTC1_L_00332009-04
1 10035U 25284WM  26075.70033565  .00000000  00000+0  00000-0 0  9998
2 10035  90.0000  96.0000 0000000   0.0000   6.0000 14.51731151    11
CTC1_L_00332010-01
1 10036U 23229QN  26075.70033565  .00000000  00000+0  00000-0 0  9996
2 10036  90.0000 108.0000 0000000   0.0000 108.0000 14.51731151    19
CTC1_L_00332010-02
1 10037U 22376X   26075.70033565  .00000000  00000+0  00000-0 0  9999
2 10037  90.0000 108.0000 0000000   0.0000 198.0000 14.51731151    19
CTC1_L_00332010-03
1 10038U 22800JA  26075.70033565  .00000000  00000+0  00000-0 0  9992
2 10038  90.0000 108.0000 0000000   0.0000 288.0000 14.51731151    10
CTC1_L_00332010-04
1 10039U 22044EB  26075.70033565  .00000000  00000+0  00000-0 0  9993
2 10039  90.0000 108.0000 0000000   0.0000  18.0000 14.51731151    12
CTC1_L_00332011-01
1 10040U 24514SP  26075.70033565  .00000000  00000+0  00000-0 0  9999
2 10040  90.0000 120.0000 0000000   0.0000 120.0000 14.51731151    12
CTC1_L_00332011-02
1 10041U 24011DS  26075.70033565  .00000000  00000+0  00000-0 0  9992
2 10041  90.0000 120.0000 0000000   0.0000 210.0000 14.51731151    13
CTC1_L_00332011-03
1 10042U 23183DB  26075.70033565  .00000000  00000+0  00000-0 0  9992
2 10042  90.0000 120.0000 0000000   0.0000 300.0000 14.51731151    14
CTC1_L_00332011-04
1 10043U 22650OJ  26075.70033565  .00000000  00000+0  00000-0 0  9991
2 10043  90.0000 120.0000 0000000   0.0000  30.0000 14.51731151    15
CTC1_L_00332012-01
1 10044U 26339EB  26075.70033565  .00000000  00000+0  00000-0 0  9990
2 10044  90.0000 132.0000 0000000   0.0000 132.0000 14.51731151    12
CTC1_L_00332012-02
1 10045U 24098IS  26075.70033565  .00000000  00000+0  00000-0 0  9991
2 10045  90.0000 132.0000 0000000   0.0000 222.0000 14.51731151    13
CTC1_L_00332012-03
1 10046U 23325RG  26075.70033565  .00000000  00000+0  00000-0 0  9994
2 10046  90.0000 132.0000 0000000   0.0000 312.0000 14.51731151    14
CTC1_L_00332012-04
1 10047U 22503UF  26075.70033565  .00000000  00000+0  00000-0 0  9992
2 10047  90.0000 132.0000 0000000   0.0000  42.0000 14.51731151    15
CTC1_L_00332013-01
1 10048U 25120QS  26075.70033565  .00000000  00000+0  00000-0 0  9991
2 10048  90.0000 144.0000 0000000   0.0000 144.0000 14.51731151    12
CTC1_L_00332013-02
1 10049U 24808SP  26075.70033565  .00000000  00000+0  00000-0 0  9994
2 10049  90.0000 144.0000 0000000   0.0000 234.0000 14.51731151    13
CTC1_L_00332013-03
1 10050U 23355PV  26075.70033565  .00000000  00000+0  00000-0 0  9992
2 10050  90.0000 144.0000 0000000   0.0000 324.0000 14.51731151    15
CTC1_L_00332013-04
1 10051U 26148VB  26075.70033565  .00000000  00000+0  00000-0 0  9996
2 10051  90.0000 144.0000 0000000   0.0000  54.0000 14.51731151    16
CTC1_L_00332014-01
1 10052U 26291NC  26075.70033565  .00000000  00000+0  00000-0 0  9996
2 10052  90.0000 156.0000 0000000   0.0000 156.0000 14.51731151    13
CTC1_L_00332014-02
1 10053U 25486QR  26075.70033565  .00000000  00000+0  00000-0 0  9992
2 10053  90.0000 156.0000 0000000   0.0000 246.0000 14.51731151    14
CTC1_L_00332014-03
1 10054U 24252JG  26075.70033565  .00000000  00000+0  00000-0 0  9993
2 10054  90.0000 156.0000 0000000   0.0000 336.0000 14.51731151    15
CTC1_L_00332014-04
1 10055U 26463QP  26075.70033565  .00000000  00000+0  00000-0 0  9990
2 10055  90.0000 156.0000 0000000   0.0000  66.0000 14.51731151    16
CTC1_L_00332015-01
1 10056U 23578BU  26075.70033565  .00000000  00000+0  00000-0 0  9995
2 10056  90.0000 168.0000 0000000   0.0000 168.0000 14.51731151    13
CTC1_L_00332015-02
1 10057U 26164RL  26075.70033565  .00000000  00000+0  00000-0 0  9990
2 10057  90.0000 168.0000 0000000   0.0000 258.0000 14.51731151    14
CTC1_L_00332015-03
1 10058U 23685CM  26075.70033565  .00000000  00000+0  00000-0 0  9996
2 10058  90.0000 168.0000 0000000   0.0000 348.0000 14.51731151    15
CTC1_L_00332015-04
1 10059U 24214FA  26075.70033565  .00000000  00000+0  00000-0 0  9996
2 10059  90.0000 168.0000 0000000   0.0000  78.0000 14.51731151    16
CTC1_L_00332016-01
1 10060U 24347QO  26075.70033565  .00000000  00000+0  00000-0 0  9995
2 10060  90.0000 180.0000 0000000   0.0000 180.0000 14.51731151    16
CTC1_L_00332016-02
1 10061U 25782KA  26075.70033565  .00000000  00000+0  00000-0 0  9990
2 10061  90.0000 180.0000 0000000   0.0000 270.0000 14.51731151    17
